OUFTI-1                 
1 41458U 16025C   21048.63922088  .00003186  00000-0  15709-3 0  9992
2 41458  98.1245 178.7020 0161427 103.6975 258.2281 15.07997701264411
E-ST@R-II               
1 41459U 16025D   21048.76171543  .00003126  00000-0  15564-3 0  9992
2 41459  98.1233 178.0245 0163216 106.0434 255.8856 15.07474883264384
AAUSAT 4                
1 41460U 16025E   21048.62548706  .00003472  00000-0  16585-3 0  9996
2 41460  98.1217 181.1810 0150632  92.1127 269.7337 15.10259294264629
AIST-2D (RS-48)         
1 41465U 16026B   21048.91146212  .00001835  00000-0  54986-4 0  9999
2 41465  97.1241 297.0309 0013034  85.4028 331.2548 15.35662856269082
SAMSAT-218D             
1 41466U 16026C   21048.80059588  .00011962  00000-0  20538-3 0  9994
2 41466  97.1668 317.3768 0006640  35.3681  36.0459 15.51283394270262
NUSAT-1 (FRESCO)        
1 41557U 16033B   21048.84846549  .00001576  00000-0  58769-4 0  9996
2 41557  97.3947 143.5204 0011563 302.7919 165.6345 15.28885564263259
NUSAT-2 (BATATA)        
1 41558U 16033C   21048.81418354  .00001801  00000-0  62714-4 0  9999
2 41558  97.4031 146.7696 0010554 297.5665 158.3892 15.30964173263414
CARTOSAT-2C             
1 41599U 16040A   21048.85466260  .00000289  00000-0  16898-4 0  9996
2 41599  97.4169 110.5021 0015628  77.7351  42.3999 15.19278618258355
SATHYABAMASAT           
1 41600U 16040B   21048.79201317  .00002182  00000-0  88706-4 0  9993
2 41600  97.2896 109.1116 0014266  47.0931 313.1502 15.25516299258900
LAPAN-A3                
1 41603U 16040E   21048.92476352  .00000181  00000-0  11453-4 0  9996
2 41603  97.2748 100.2758 0014988  65.5204 107.8143 15.19961038258426
BIROS                   
1 41604U 16040F   21048.78126787  .00000585  00000-0  28248-4 0  9993
2 41604  97.2811 105.1068 0013384  48.0694 312.1682 15.22369752258691
SWAYAM                  
1 41607U 16040J   21048.39771069  .00001660  00000-0  68760-4 0  9990
2 41607  97.2855 107.6537 0013921  48.4455 311.7975 15.25207405258741
BEESAT-4                
1 41619U 16040W   21048.92589099  .00001629  00000-0  68155-4 0  9995
2 41619  97.2872 108.3028 0011782  41.4763 318.7367 15.24918476246794
3CAT-2                  
1 41732U 16051B   21048.55533759  .00001330  00000-0  50726-4 0  9998
2 41732  97.3770 329.9050 0011902 206.5689 326.9485 15.28398738251187
PRATHAM                 
1 41783U 16059A   21048.92313451  .00000047  00000-0  18169-4 0  9997
2 41783  97.9829 103.0174 0032206 262.4557  97.2986 14.63112436234774
ALSAT 1N                
1 41789U 16059G   21048.86446776  .00000084  00000-0  24706-4 0  9998
2 41789  97.9870 106.3640 0027054 247.9103 111.9219 14.64388821234946
LISHUI 1-01             
1 41845U 16066E   21048.83878455  .00005821  00000-0  74253-3 0  9994
2 41845  98.7292 146.0615 0280893 128.7077 233.9643 14.57863338225968
CARTOSAT-2D             
1 41948U 17008A   21048.93251415  .00000502  00000-0  27023-4 0  9992
2 41948  97.4589 110.8884 0006764 205.0572 155.0317 15.19263711222233
NAYIF-1 (EO-88)         
1 42017U 17008BX  21048.44685414  .00001819  00000-0  70277-4 0  9997
2 42017  97.3309 118.1628 0006575 160.3741 199.7753 15.27505326222934
ZHUHAI-1 02 (CAS-4B)    
1 42759U 17034B   21048.92344269  .00000377  00000-0  36108-4 0  9995
2 42759  43.0168 118.1503 0008090 139.4809  29.3132 15.10073193203073
ZHUHAI-1 01 (CAS-4A)    
1 42761U 17034D   21048.92096593  .00000406  00000-0  37788-4 0  9990
2 42761  43.0177 117.3027 0008925 143.1938  25.6645 15.10154397203074
UCLSAT                  
1 42765U 17036A   21048.87469953  .00001468  00000-0  62790-4 0  9994
2 42765  97.2680 102.1416 0009634 235.0913 124.9420 15.24329427203958
NIUSAT                  
1 42766U 17036B   21048.37285158  .00000993  00000-0  45934-4 0  9996
2 42766  97.2681  98.4310 0013798 234.8290 125.1655 15.22327558202943
CARTOSAT-2E             
1 42767U 17036C   21048.94335897  .00000416  00000-0  22908-4 0  9992
2 42767  97.3902 108.9000 0007331 266.8838  93.1557 15.19298915202803
LITUANICASAT-2          
1 42768U 17036D   21048.92450886  .00002633  00000-0  10685-3 0  9998
2 42768  97.2747 102.6486 0013026 223.4339 136.5874 15.25398926203245
AALTO-1                 
1 42775U 17036L   21048.87009800  .00000896  00000-0  41717-4 0  9996
2 42775  97.2654  99.2112 0012304 231.5699 128.4434 15.22345461203003
URSA MAIOR              
1 42776U 17036M   21048.76063927  .00001029  00000-0  47153-4 0  9994
2 42776  97.2668  99.5057 0012102 231.3801 128.6353 15.22580458203008
COMPASS 2               
1 42777U 17036N   21048.85739749  .00001944  00000-0  80644-4 0  9995
2 42777  97.2733 102.8633 0010719 224.6887 135.3488 15.24984359203184
MAX VALIER SAT          
1 42778U 17036P   21048.89056463  .00000979  00000-0  44237-4 0  9990
2 42778  97.2730 101.3367 0010687 232.5407 127.4859 15.23214803203082
PEGASUS                 
1 42784U 17036V   21048.88838755  .00001305  00000-0  56775-4 0  9992
2 42784  97.2686 101.7386 0010182 236.8848 123.1413 15.23949396203148
NUDTSAT                 
1 42787U 17036Y   21048.90573064  .00002140  00000-0  86858-4 0  9990
2 42787  97.2736 103.7885 0009061 236.7381 123.2987 15.25634954203104
SUCHAI                  
1 42788U 17036Z   21048.88008580  .00001591  00000-0  67196-4 0  9997
2 42788  97.2695 102.5712 0009746 233.7312 126.3026 15.24640321203265
SKCUBE                  
1 42789U 17036AA  21048.89019719  .00001463  00000-0  62419-4 0  9996
2 42789  97.2689 102.3471 0009632 234.2871 125.7471 15.24420221203171
VZLUSAT-1               
1 42790U 17036AB  21048.89810015  .00002161  00000-0  87751-4 0  9998
2 42790  97.2718 103.7697 0009153 229.2231 130.8214 15.25609012203252
ROBUSTA-1B              
1 42792U 17036AD  21048.87702303  .00001553  00000-0  65700-4 0  9992
2 42792  97.2692 102.6685 0009221 234.2587 125.7794 15.24639291203208
D-SAT                   
1 42794U 17036AF  21048.80834191  .00000458  00000-0  45042-4 0  9998
2 42794  97.4723  74.9945 0124236 265.6738  93.0278 14.91454209199224
NORSAT 2                
1 42828U 17042D   21048.90694100  .00000211  00000-0  26210-4 0  9991
2 42828  97.4953 285.8626 0014160 178.6117 181.5144 14.91729324195914
TECHNOSAT               
1 42829U 17042E   21048.88334551  .00000118  00000-0  17100-4 0  9994
2 42829  97.4874 284.6387 0014058 180.3092 179.8121 14.91218840195861
2017-042F               
1 42830U 17042F   21048.89065679  .00000625  00000-0  65766-4 0  9993
2 42830  97.4982 286.8300 0014005 173.4607 186.6798 14.92636178195965
FLYING LAPTOP           
1 42831U 17042G   21048.79091709  .00000034  00000-0  87361-5 0  9996
2 42831  97.4874 284.7433 0013898 180.7762 179.3449 14.91236847195850
CORVUS BC2              
1 42846U 17042X   21048.94255454  .00000322  00000-0  36733-4 0  9994
2 42846  97.4911 286.9450 0009710 169.3374 190.8053 14.92228863196019
CORVUS BC1              
1 42847U 17042Y   21048.92151396  .00000202  00000-0  24941-4 0  9998
2 42847  97.4915 287.1404 0009393 167.9846 192.1600 14.92330297196019
SIMPL                   
1 42983U 98067NF  21048.78783702  .00007355  00000-0  80073-4 0  9995
2 42983  51.6369 146.4294 0003027 261.7798  98.2853 15.64607698188655
CZ-4C R/B               
1 43012U 17072C   21048.72219817  .00000072  00000-0  26502-4 0  9997
2 43012  98.7331  57.7960 0127490 359.0939   1.0007 14.56143552173317
RADFXSAT (FOX-1B)       
1 43017U 17073E   21048.95880192  .00000889  00000-0  74378-4 0  9998
2 43017  97.7157 317.6424 0255128 330.4688  28.2314 14.79321399175455
EAGLESAT 1              
1 43018U 17073F   21048.46471099  .00001457  00000-0  11639-3 0  9999
2 43018  97.7160 317.8711 0252274 329.3393  29.3278 14.80233912175298
ECAMSAT                 
1 43019U 98067NG  21048.73105616  .00017944  00000-0  13291-3 0  9995
2 43019  51.6399 121.3834 0002820 270.1870  89.8805 15.72997317271303
INS-1C                  
1 43116U 18004F   21048.17144397  .00001510  00000-0  64055-4 0  9990
2 43116  97.4263 123.7574 0007561 263.8427  96.1949 15.24648288172318
FLOCK 3P'-3             
1 43119U 18004J   21048.20138203  .00000822  00000-0  36969-4 0  9994
2 43119  97.4250 122.8507 0008327 272.5391  87.4893 15.23918899172263
FLOCK 3P'-2             
1 43120U 18004K   21048.48165136  .00000667  00000-0  30800-4 0  9996
2 43120  97.4256 122.9702 0008333 271.8651  88.1632 15.23644336172291
FLOCK 3P'-1             
1 43121U 18004L   21048.92924089  .00003316  00000-0  13154-3 0  9992
2 43121  97.4250 124.7774 0007683 264.5479  95.4882 15.26055862172380
FLOCK 3P'-4             
1 43122U 18004M   21048.15086858  .00000881  00000-0  39697-4 0  9996
2 43122  97.4265 122.7299 0008156 276.0457  83.9850 15.23666123172244
MICROMAS-2A             
1 43131U 18004W   21048.85594430  .00002488  00000-0  98062-4 0  9999
2 43131  97.4225 125.5514 0007067 263.2285  96.8150 15.26518136172517
PICSAT                  
1 43132U 18004X   21048.88195782  .00001629  00000-0  67538-4 0  9990
2 43132  97.4211 124.4804 0007628 269.2278  90.8086 15.25311287172456
CNUSAIL-1               
1 43133U 18004Y   21048.90153138  .00001111  00000-0  48150-4 0  9998
2 43133  97.4192 123.7188 0007712 271.6504  88.3850 15.24448573172410
2018-004Z               
1 43134U 18004Z   21048.50953530  .00001305  00000-0  55223-4 0  9993
2 43134  97.4206 123.8771 0007490 272.2934  87.7446 15.24970349172384
FOX-1D (AO-92)          
1 43137U 18004AC  21048.45648520  .00001126  00000-0  48294-4 0  9991
2 43137  97.4192 123.6822 0007293 274.3566  85.6839 15.24807323172374
STEP CUBE LAB           
1 43138U 18004AD  21048.62315971  .00002279  00000-0  90857-4 0  9994
2 43138  97.4225 125.2348 0006940 269.5063  90.5380 15.26221821172471
XIAOXIANG-2             
1 43155U 18008A   21048.89646641  .00000637  00000-0  40512-4 0  9996
2 43155  97.4180 117.3925 0017923  27.5748  59.3114 15.12124111170002
